{
    "links": {
        "self": "http://www.neowsapp.com/rest/v1/neo/3856734?api_key=iIulBulltgU6a56xZRHN4H3l9WmuAYTsLGpBGhQ2"
    },
    "id": "3856734",
    "neo_reference_id": "3856734",
    "name": "(2019 SY4)",
    "designation": "2019 SY4",
    "nasa_jpl_url": "http://ssd.jpl.nasa.gov/sbdb.cgi?sstr=3856734",
    "absolute_magnitude_h": 24.7,
    "estimated_diameter": {
        "kilometers": {
            "estimated_diameter_min": 0.0305179233,
            "estimated_diameter_max": 0.0682401509
        },
        "meters": {
            "estimated_diameter_min": 30.5179232594,
            "estimated_diameter_max": 68.2401509401
        },
        "miles": {
            "estimated_diameter_min": 0.0189629525,
            "estimated_diameter_max": 0.0424024508
        },
        "feet": {
            "estimated_diameter_min": 100.1244233463,
            "estimated_diameter_max": 223.8850168104
        }
    },
    "is_potentially_hazardous_asteroid": false,
    "close_approach_data": [
        {
            "close_approach_date": "1913-07-31",
            "close_approach_date_full": "1913-Jul-31 17:56",
            "epoch_date_close_approach": -1780466640000,
            "relative_velocity": {
                "kilometers_per_second": "12.5922630725",
                "kilometers_per_hour": "45332.1470609014",
                "miles_per_hour": "28167.633266814"
            },
            "miss_distance": {
                "astronomical": "0.1832462588",
                "lunar": "71.2827946732",
                "kilometers": "27413250.001948756",
                "miles": "17033803.6832385928"
            },
            "orbiting_body": "Earth"
        },
        {
            "close_approach_date": "2019-09-24",
            "close_approach_date_full": "2019-Sep-24 23:43",
            "epoch_date_close_approach": 1569368580000,
            "relative_velocity": {
                "kilometers_per_second": "8.8095018833",
                "kilometers_per_hour": "31714.2067799334",
                "miles_per_hour": "19705.974762787"
            },
            "miss_distance": {
                "astronomical": "0.0508143087",
                "lunar": "19.7667660843",
                "kilometers": "7601712.347042469",
                "miles": "4723485.0215413122"
            },
            "orbiting_body": "Earth"
        }
    ],
    "orbital_data": {
        "orbit_id": "5",
        "orbit_determination_date": "2019-10-20 06:04:05",
        "first_observation_date": "2019-09-22",
        "last_observation_date": "2019-10-19",
        "data_arc_in_days": 27,
        "observations_used": 42,
        "orbit_uncertainty": "7",
        "minimum_orbit_intersection": ".0274817",
        "jupiter_tisserand_invariant": "3.105",
        "epoch_osculation": "2459000.5",
        "eccentricity": ".6072459116531393",
        "semi_major_axis": "2.629962188411246",
        "inclination": "4.563200608160614",
        "ascending_node_longitude": "352.3275141965809",
        "orbital_period": "1557.839400592934",
        "perihelion_distance": "1.032928401696174",
        "perihelion_argument": "354.6083639440995",
        "aphelion_distance": "4.226995975126319",
        "perihelion_time": "2458740.713562713410",
        "mean_anomaly": "60.03386317458411",
        "mean_motion": ".2310892893471428",
        "equinox": "J2000",
        "orbit_class": {
            "orbit_class_type": "AMO",
            "orbit_class_description": "Near-Earth asteroid orbits similar to that of 1221 Amor",
            "orbit_class_range": "1.017 AU < q (perihelion) < 1.3 AU"
        }
    },
    "is_sentry_object": false
}